CCSDS_OMM_VERS = 2.0
CREATION_DATE  = 
ORIGINATOR     = 

OBJECT_NAME    = ALOS (DAICHI)
OBJECT_ID      = 2006-002A
CENTER_NAME    = EARTH
REF_FRAME      = TEME
TIME_SYSTEM    = UTC
MEAN_ELEMENT_THEORY = SGP/SGP4

EPOCH          = 2026-01-20T20:18:48.918528
MEAN_MOTION    = 14.69627060
ECCENTRICITY   = .00021963
INCLINATION    = 98.1148
RA_OF_ASC_NODE = 337.0726
ARG_OF_PERICENTER = 84.1587
MEAN_ANOMALY   = 275.9869

EPHEMERIS_TYPE = 0
CLASSIFICATION_TYPE = U
NORAD_CAT_ID   = 28931
ELEMENT_SET_NO = 999
REV_AT_EPOCH   = 6645
BSTAR          = .54455062E-3
MEAN_MOTION_DOT = .3189E-4
MEAN_MOTION_DDOT = 0

CCSDS_OMM_VERS = 2.0
CREATION_DATE  = 
ORIGINATOR     = 

OBJECT_NAME    = H-2A R/B
OBJECT_ID      = 2006-002B
CENTER_NAME    = EARTH
REF_FRAME      = TEME
TIME_SYSTEM    = UTC
MEAN_ELEMENT_THEORY = SGP/SGP4

EPOCH          = 2026-01-20T22:50:31.733952
MEAN_MOTION    = 15.15414000
ECCENTRICITY   = .00540867
INCLINATION    = 98.2341
RA_OF_ASC_NODE = 163.9349
ARG_OF_PERICENTER = 44.5900
MEAN_ANOMALY   = 315.9662

EPHEMERIS_TYPE = 0
CLASSIFICATION_TYPE = U
NORAD_CAT_ID   = 28932
ELEMENT_SET_NO = 999
REV_AT_EPOCH   = 8720
BSTAR          = .96755604E-3
MEAN_MOTION_DOT = .18921E-3
MEAN_MOTION_DDOT = 0

CCSDS_OMM_VERS = 2.0
CREATION_DATE  = 
ORIGINATOR     = 

OBJECT_NAME    = RESURS-DK 1
OBJECT_ID      = 2006-021A
CENTER_NAME    = EARTH
REF_FRAME      = TEME
TIME_SYSTEM    = UTC
MEAN_ELEMENT_THEORY = SGP/SGP4

EPOCH          = 2026-01-20T23:42:06.246720
MEAN_MOTION    = 15.12416745
ECCENTRICITY   = .00052079
INCLINATION    = 69.9346
RA_OF_ASC_NODE = 0.3866
ARG_OF_PERICENTER = 221.8589
MEAN_ANOMALY   = 138.2180

EPHEMERIS_TYPE = 0
CLASSIFICATION_TYPE = U
NORAD_CAT_ID   = 29228
ELEMENT_SET_NO = 999
REV_AT_EPOCH   = 8031
BSTAR          = .35808466E-3
MEAN_MOTION_DOT = .6133E-4
MEAN_MOTION_DDOT = 0

CCSDS_OMM_VERS = 2.0
CREATION_DATE  = 
ORIGINATOR     = 

OBJECT_NAME    = CZ-4B R/B
OBJECT_ID      = 2006-046C
CENTER_NAME    = EARTH
REF_FRAME      = TEME
TIME_SYSTEM    = UTC
MEAN_ELEMENT_THEORY = SGP/SGP4

EPOCH          = 2026-01-20T23:22:07.189248
MEAN_MOTION    = 15.16331715
ECCENTRICITY   = .00352885
INCLINATION    = 97.5678
RA_OF_ASC_NODE = 66.0065
ARG_OF_PERICENTER = 73.8891
MEAN_ANOMALY   = 286.6222

EPHEMERIS_TYPE = 0
CLASSIFICATION_TYPE = U
NORAD_CAT_ID   = 29507
ELEMENT_SET_NO = 999
REV_AT_EPOCH   = 5281
BSTAR          = .66298169E-3
MEAN_MOTION_DOT = .13002E-3
MEAN_MOTION_DDOT = 0

CCSDS_OMM_VERS = 2.0
CREATION_DATE  = 
ORIGINATOR     = 

OBJECT_NAME    = CZ-2C R/B
OBJECT_ID      = 2007-010B
CENTER_NAME    = EARTH
REF_FRAME      = TEME
TIME_SYSTEM    = UTC
MEAN_ELEMENT_THEORY = SGP/SGP4

EPOCH          = 2026-01-20T21:21:38.322432
MEAN_MOTION    = 14.20227333
ECCENTRICITY   = .00600597
INCLINATION    = 98.3972
RA_OF_ASC_NODE = 136.5709
ARG_OF_PERICENTER = 73.6187
MEAN_ANOMALY   = 287.1582

EPHEMERIS_TYPE = 0
CLASSIFICATION_TYPE = U
NORAD_CAT_ID   = 31114
ELEMENT_SET_NO = 999
REV_AT_EPOCH   = 97293
BSTAR          = .13544803E-3
MEAN_MOTION_DOT = .254E-5
MEAN_MOTION_DDOT = 0

CCSDS_OMM_VERS = 2.0
CREATION_DATE  = 
ORIGINATOR     = 

OBJECT_NAME    = COSMOS 2428
OBJECT_ID      = 2007-029A
CENTER_NAME    = EARTH
REF_FRAME      = TEME
TIME_SYSTEM    = UTC
MEAN_ELEMENT_THEORY = SGP/SGP4

EPOCH          = 2026-01-20T23:02:30.448896
MEAN_MOTION    = 14.12915732
ECCENTRICITY   = .00060515
INCLINATION    = 70.9401
RA_OF_ASC_NODE = 303.5365
ARG_OF_PERICENTER = 331.4267
MEAN_ANOMALY   = 28.6521

EPHEMERIS_TYPE = 0
CLASSIFICATION_TYPE = U
NORAD_CAT_ID   = 31792
ELEMENT_SET_NO = 999
REV_AT_EPOCH   = 95735
BSTAR          = .28002418E-3
MEAN_MOTION_DOT = .474E-5
MEAN_MOTION_DDOT = 0

CCSDS_OMM_VERS = 2.0
CREATION_DATE  = 
ORIGINATOR     = 

OBJECT_NAME    = SL-16 R/B
OBJECT_ID      = 2007-029B
CENTER_NAME    = EARTH
REF_FRAME      = TEME
TIME_SYSTEM    = UTC
MEAN_ELEMENT_THEORY = SGP/SGP4

EPOCH          = 2026-01-20T23:42:50.511168
MEAN_MOTION    = 14.14822372
ECCENTRICITY   = .00020684
INCLINATION    = 70.9747
RA_OF_ASC_NODE = 272.6570
ARG_OF_PERICENTER = 272.9090
MEAN_ANOMALY   = 179.1506

EPHEMERIS_TYPE = 0
CLASSIFICATION_TYPE = U
NORAD_CAT_ID   = 31793
ELEMENT_SET_NO = 999
REV_AT_EPOCH   = 95862
BSTAR          = -.41105438E-4
MEAN_MOTION_DOT = -.127E-5
MEAN_MOTION_DDOT = 0

CCSDS_OMM_VERS = 2.0
CREATION_DATE  = 
ORIGINATOR     = 

OBJECT_NAME    = KORONAS-FOTON
OBJECT_ID      = 2009-003A
CENTER_NAME    = EARTH
REF_FRAME      = TEME
TIME_SYSTEM    = UTC
MEAN_ELEMENT_THEORY = SGP/SGP4

EPOCH          = 2026-01-20T21:28:25.603392
MEAN_MOTION    = 15.42047562
ECCENTRICITY   = .0010397
INCLINATION    = 82.4333
RA_OF_ASC_NODE = 325.5097
ARG_OF_PERICENTER = 341.2926
MEAN_ANOMALY   = 18.7937

EPHEMERIS_TYPE = 0
CLASSIFICATION_TYPE = U
NORAD_CAT_ID   = 33504
ELEMENT_SET_NO = 999
REV_AT_EPOCH   = 93837
BSTAR          = .47604697E-3
MEAN_MOTION_DOT = .20414E-3
MEAN_MOTION_DDOT = 0

CCSDS_OMM_VERS = 2.0
CREATION_DATE  = 
ORIGINATOR     = 

OBJECT_NAME    = CZ-2C R/B
OBJECT_ID      = 2011-030B
CENTER_NAME    = EARTH
REF_FRAME      = TEME
TIME_SYSTEM    = UTC
MEAN_ELEMENT_THEORY = SGP/SGP4

EPOCH          = 2026-01-20T20:20:23.453952
MEAN_MOTION    = 14.81031945
ECCENTRICITY   = .00534889
INCLINATION    = 97.8467
RA_OF_ASC_NODE = 339.1032
ARG_OF_PERICENTER = 144.6934
MEAN_ANOMALY   = 269.4064

EPHEMERIS_TYPE = 0
CLASSIFICATION_TYPE = U
NORAD_CAT_ID   = 37731
ELEMENT_SET_NO = 999
REV_AT_EPOCH   = 78301
BSTAR          = .27449743E-3
MEAN_MOTION_DOT = .2127E-4
MEAN_MOTION_DDOT = 0

CCSDS_OMM_VERS = 2.0
CREATION_DATE  = 
ORIGINATOR     = 

OBJECT_NAME    = H-2A R/B
OBJECT_ID      = 2012-025E
CENTER_NAME    = EARTH
REF_FRAME      = TEME
TIME_SYSTEM    = UTC
MEAN_ELEMENT_THEORY = SGP/SGP4

EPOCH          = 2026-01-20T20:55:37.103808
MEAN_MOTION    = 14.94725203
ECCENTRICITY   = .00460068
INCLINATION    = 98.4656
RA_OF_ASC_NODE = 344.1383
ARG_OF_PERICENTER = 108.3686
MEAN_ANOMALY   = 252.2544

EPHEMERIS_TYPE = 0
CLASSIFICATION_TYPE = U
NORAD_CAT_ID   = 38341
ELEMENT_SET_NO = 999
REV_AT_EPOCH   = 74107
BSTAR          = .58605267E-3
MEAN_MOTION_DOT = .6433E-4
MEAN_MOTION_DDOT = 0

